{
  "type": "FeatureCollection",
  "features": [
    {
      "type": "Feature",
      "properties": {
        "norad_id": 37836,
        "name": "EUTELSAT 16A",
        "group": "eutelsat",
        "lat": 0.07308698944962158,
        "lon": 59.317326541100925,
        "alt_km": 35806.84078980025,
        "timestamp": "2025-12-23T20:42:36.743533+00:00",
        "meta_object_name": "EUTELSAT 16A",
        "meta_object_id": "2011-057A",
        "meta_epoch": "2025-12-23T06:21:40.257792",
        "meta_mean_motion": 1.00270419,
        "meta_eccentricity": 0.00058544,
        "meta_inclination": 0.0574,
        "meta_ra_of_asc_node": 344.5703,
        "meta_arg_of_pericenter": 289.1749,
        "meta_mean_anomaly": 289.7187,
        "meta_ephemeris_type": 0,
        "meta_classification_type": "U",
        "meta_norad_cat_id": 37836,
        "meta_element_set_no": 999,
        "meta_rev_at_epoch": 556,
        "meta_bstar": 0,
        "meta_mean_motion_dot": 1.25e-06,
        "meta_mean_motion_ddot": 0,
        "tle_line1": "1 37836U 11057A   25357.26504928  .00000125  00000+0  00000+0 0  9995",
        "tle_line2": "2 37836   0.0574 344.5703 0005854 289.1749 289.7187  1.00270419  5565"
      },
      "geometry": {
        "type": "Point",
        "coordinates": [
          59.317326541100925,
          0.07308698944962158
        ]
      }
    },
    {
      "type": "Feature",
      "properties": {
        "norad_id": 38992,
        "name": "EUTELSAT 21B",
        "group": "eutelsat",
        "lat": 0.08444628285151047,
        "lon": 64.89310547415768,
        "alt_km": 35798.1030104347,
        "timestamp": "2025-12-23T20:42:36.743568+00:00",
        "meta_object_name": "EUTELSAT 21B",
        "meta_object_id": "2012-062B",
        "meta_epoch": "2025-12-23T06:23:10.114656",
        "meta_mean_motion": 1.00270299,
        "meta_eccentricity": 0.00032553,
        "meta_inclination": 0.0667,
        "meta_ra_of_asc_node": 345.8982,
        "meta_arg_of_pericenter": 291.0636,
        "meta_mean_anomaly": 292.4718,
        "meta_ephemeris_type": 0,
        "meta_classification_type": "U",
        "meta_norad_cat_id": 38992,
        "meta_element_set_no": 999,
        "meta_rev_at_epoch": 4806,
        "meta_bstar": 0,
        "meta_mean_motion_dot": 1.51e-06,
        "meta_mean_motion_ddot": 0,
        "tle_line1": "1 38992U 12062B   25357.26608929  .00000151  00000+0  00000+0 0  9991",
        "tle_line2": "2 38992   0.0667 345.8982 0003255 291.0636 292.4718  1.00270299 48064"
      },
      "geometry": {
        "type": "Point",
        "coordinates": [
          64.89310547415768,
          0.08444628285151047
        ]
      }
    },
    {
      "type": "Feature",
      "properties": {
        "norad_id": 39020,
        "name": "EUTELSAT 70B",
        "group": "eutelsat",
        "lat": 0.0685868255797907,
        "lon": 113.75897520883424,
        "alt_km": 35799.6987428357,
        "timestamp": "2025-12-23T20:42:36.743582+00:00",
        "meta_object_name": "EUTELSAT 70B",
        "meta_object_id": "2012-069A",
        "meta_epoch": "2025-12-23T03:11:43.500768",
        "meta_mean_motion": 1.00273212,
        "meta_eccentricity": 0.00042725,
        "meta_inclination": 0.0632,
        "meta_ra_of_asc_node": 343.0241,
        "meta_arg_of_pericenter": 271.5168,
        "meta_mean_anomaly": 315.8106,
        "meta_ephemeris_type": 0,
        "meta_classification_type": "U",
        "meta_norad_cat_id": 39020,
        "meta_element_set_no": 999,
        "meta_rev_at_epoch": 4774,
        "meta_bstar": 0,
        "meta_mean_motion_dot": -2.2e-07,
        "meta_mean_motion_ddot": 0,
        "tle_line1": "1 39020U 12069A   25357.13314237 -.00000022  00000+0  00000+0 0  9991",
        "tle_line2": "2 39020   0.0632 343.0241 0004272 271.5168 315.8106  1.00273212 47743"
      },
      "geometry": {
        "type": "Point",
        "coordinates": [
          113.75897520883424,
          0.0685868255797907
        ]
      }
    },
    {
      "type": "Feature",
      "properties": {
        "norad_id": 39122,
        "name": "EUTELSAT 117 WEST A",
        "group": "eutelsat",
        "lat": -0.025913278801683277,
        "lon": -73.4921090788477,
        "alt_km": 35775.31245989731,
        "timestamp": "2025-12-23T20:42:36.743595+00:00",
        "meta_object_name": "EUTELSAT 117 WEST A",
        "meta_object_id": "2013-012A",
        "meta_epoch": "2025-12-23T05:52:00.615648",
        "meta_mean_motion": 1.00270836,
        "meta_eccentricity": 0.00026538,
        "meta_inclination": 0.0238,
        "meta_ra_of_asc_node": 311.3527,
        "meta_arg_of_pericenter": 323.6864,
        "meta_mean_anomaly": 148.2111,
        "meta_ephemeris_type": 0,
        "meta_classification_type": "U",
        "meta_norad_cat_id": 39122,
        "meta_element_set_no": 999,
        "meta_rev_at_epoch": 4666,
        "meta_bstar": 0,
        "meta_mean_motion_dot": 8e-08,
        "meta_mean_motion_ddot": 0,
        "tle_line1": "1 39122U 13012A   25357.24445157  .00000008  00000+0  00000+0 0  9994",
        "tle_line2": "2 39122   0.0238 311.3527 0002653 323.6864 148.2111  1.00270836 46669"
      },
      "geometry": {
        "type": "Point",
        "coordinates": [
          -73.4921090788477,
          -0.025913278801683277
        ]
      }
    },
    {
      "type": "Feature",
      "properties": {
        "norad_id": 39163,
        "name": "EUTELSAT 7B",
        "group": "eutelsat",
        "lat": 0.06216401642014053,
        "lon": 50.336748399132524,
        "alt_km": 35785.55541513095,
        "timestamp": "2025-12-23T20:42:36.743608+00:00",
        "meta_object_name": "EUTELSAT 7B",
        "meta_object_id": "2013-022A",
        "meta_epoch": "2025-12-23T04:36:20.345760",
        "meta_mean_motion": 1.0027134,
        "meta_eccentricity": 0.0004487,
        "meta_inclination": 0.0655,
        "meta_ra_of_asc_node": 5.1093,
        "meta_arg_of_pericenter": 317.2592,
        "meta_mean_anomaly": 205.6945,
        "meta_ephemeris_type": 0,
        "meta_classification_type": "U",
        "meta_norad_cat_id": 39163,
        "meta_element_set_no": 999,
        "meta_rev_at_epoch": 4618,
        "meta_bstar": 0,
        "meta_mean_motion_dot": 6.9e-07,
        "meta_mean_motion_ddot": 0,
        "tle_line1": "1 39163U 13022A   25357.19190215  .00000069  00000+0  00000+0 0  9993",
        "tle_line2": "2 39163   0.0655   5.1093 0004487 317.2592 205.6945  1.00271340 46188"
      },
      "geometry": {
        "type": "Point",
        "coordinates": [
          50.336748399132524,
          0.06216401642014053
        ]
      }
    },
    {
      "type": "Feature",
      "properties": {
        "norad_id": 39612,
        "name": "EXPRESS-AT1",
        "group": "eutelsat",
        "lat": 0.017717035791171544,
        "lon": 99.2861093946396,
        "alt_km": 35782.9808673007,
        "timestamp": "2025-12-23T20:42:36.743621+00:00",
        "meta_object_name": "EXPRESS-AT1",
        "meta_object_id": "2014-010A",
        "meta_epoch": "2025-12-23T13:23:52.325664",
        "meta_mean_motion": 1.00270884,
        "meta_eccentricity": 8.25e-05,
        "meta_inclination": 0.0133,
        "meta_ra_of_asc_node": 300.272,
        "meta_arg_of_pericenter": 176.8476,
        "meta_mean_anomaly": 232.1915,
        "meta_ephemeris_type": 0,
        "meta_classification_type": "U",
        "meta_norad_cat_id": 39612,
        "meta_element_set_no": 999,
        "meta_rev_at_epoch": 4305,
        "meta_bstar": 0,
        "meta_mean_motion_dot": 1e-06,
        "meta_mean_motion_ddot": 0,
        "tle_line1": "1 39612U 14010A   25357.55824451  .00000100  00000+0  00000+0 0  9992",
        "tle_line2": "2 39612   0.0133 300.2720 0000825 176.8476 232.1915  1.00270884 43053"
      },
      "geometry": {
        "type": "Point",
        "coordinates": [
          99.2861093946396,
          0.017717035791171544
        ]
      }
    },
    {
      "type": "Feature",
      "properties": {
        "norad_id": 39613,
        "name": "EXPRESS-AT2",
        "group": "eutelsat",
        "lat": -0.009350400374562206,
        "lon": -176.86238959194395,
        "alt_km": 35786.68604808063,
        "timestamp": "2025-12-23T20:42:36.743633+00:00",
        "meta_object_name": "EXPRESS-AT2",
        "meta_object_id": "2014-010B",
        "meta_epoch": "2025-12-23T06:56:59.375904",
        "meta_mean_motion": 1.00273479,
        "meta_eccentricity": 0.00014714,
        "meta_inclination": 0.0146,
        "meta_ra_of_asc_node": 298.7688,
        "meta_arg_of_pericenter": 343.7959,
        "meta_mean_anomaly": 53.622,
        "meta_ephemeris_type": 0,
        "meta_classification_type": "U",
        "meta_norad_cat_id": 39613,
        "meta_element_set_no": 999,
        "meta_rev_at_epoch": 4273,
        "meta_bstar": 0,
        "meta_mean_motion_dot": -2.6e-06,
        "meta_mean_motion_ddot": 0,
        "tle_line1": "1 39613U 14010B   25357.28957611 -.00000260  00000+0  00000+0 0  9996",
        "tle_line2": "2 39613   0.0146 298.7688 0001471 343.7959  53.6220  1.00273479 42733"
      },
      "geometry": {
        "type": "Point",
        "coordinates": [
          -176.86238959194395,
          -0.009350400374562206
        ]
      }
    }
  ]
}